PANDORA
1 67395U 80229J   26125.99327546  .00000000  00000-0  37770-3 0    02
2 67395  97.8020 125.3094 0003466 267.7171  12.5375 14.87998854    08
